{"fetched_at":"2026-06-14T03:48:42Z","count":16735,"tles":[{"name":"2026-106D","line1":"1 69100U 26106D   26164.56782823  .00001620  00000+0  99931-4 0  9994","line2":"2 69100  97.5075 246.7169 0014124 176.3364 183.7972 15.11265809  4434","category":"Other"},{"name":"SMILE","line1":"1 69123U 26109A   26144.65318427 -.00001976  00000+0 -42379-3 0  9994","line2":"2 69123  70.0007 229.2745 0009123 259.5159 100.4951 14.57062785   802","category":"Other"},{"name":"QIANFAN-151","line1":"1 69110U 26108G   26163.99690409 -.02093185  00000+0 -13260+1 0  9999","line2":"2 69110  89.0103  22.6784 0020046 113.8988 246.4298 14.08126768  3752","category":"Other"},{"name":"QIANFAN-152","line1":"1 69111U 26108H   26163.98731116 -.02079803  00000+0 -12864+1 0  9990","line2":"2 69111  89.0105  22.6765 0020473 108.8650 251.4757 14.09413231  3759","category":"Other"},{"name":"QIANFAN-156","line1":"1 69115U 26108M   26163.96413537 -.01951408  00000+0 -11885+1 0  9997","line2":"2 69115  89.0116  22.6746 0021312 111.6361 248.7096 14.09991528  3753","category":"Other"},{"name":"ZHUQUE-2E R/B","line1":"1 69095U 26105A   26164.63728455  .00129473 -61871-6  31632-3 0  9996","line2":"2 69095  88.9698 194.7518 0450447 311.9792  44.3883 15.16482390  4610","category":"Other"},{"name":"2026-106A","line1":"1 69097U 26106A   26164.57096051  .00007579  00000+0  45440-3 0  9995","line2":"2 69097  97.5101 246.7201 0014632 173.4391 186.7033 15.11154915  4434","category":"Other"},{"name":"QIANFAN-153","line1":"1 69112U 26108J   26163.98248933 -.02100444  00000+0 -13152+1 0  9998","line2":"2 69112  89.0100  22.6749 0020861 111.2260 249.1155 14.08778899  3752","category":"Other"},{"name":"2026-106E","line1":"1 69101U 26106E   26164.56263260  .00008408  00000+0  49910-3 0  9996","line2":"2 69101  97.5085 246.7242 0016573 177.4842 182.6475 15.11457605  4434","category":"Other"},{"name":"2026-106B","line1":"1 69098U 26106B   26164.58509930  .00004959  00000+0  31125-3 0  9996","line2":"2 69098  97.5080 246.6952 0015059 169.3205 190.8347 15.09650867  4433","category":"Other"},{"name":"QIANFAN-155","line1":"1 69114U 26108L   26163.97851563 -.01926425  00000+0 -12149+1 0  9997","line2":"2 69114  89.0108  22.6755 0019287 121.5570 238.7500 14.08040542  3752","category":"Other"},{"name":"QIANFAN-160","line1":"1 69119U 26108R   26163.94462367 -.02091966  00000+0 -12234+1 0  9998","line2":"2 69119  89.0107  22.6693 0015572 116.1921 244.0868 14.12554805  3754","category":"Other"},{"name":"2026-106C","line1":"1 69099U 26106C   26164.57017844  .00007488  00000+0  44852-3 0  9995","line2":"2 69099  97.5105 246.7225 0014415 174.1832 185.9568 15.11197315  4438","category":"Other"},{"name":"DRAGON CRS-34","line1":"1 69103U 26107A   26164.51270266  .00008586  00000+0  16263-3 0  9990","line2":"2 69103  51.6334 318.2790 0004918 181.0364 179.0615 15.49208508570764","category":"Other"},{"name":"QIANFAN-162","line1":"1 69121U 26108T   26164.07524993  .00000084  00000+0  34282-4 0  9998","line2":"2 69121  89.0114  22.6524 0016153 127.0663 233.2005 14.17313030  3771","category":"Other"},{"name":"QIANFAN-157","line1":"1 69116U 26108N   26164.00410581 -.01979358  00000+0 -11700+1 0  9990","line2":"2 69116  89.0104  22.6610 0021095 120.0487 240.2794 14.11688735  3761","category":"Other"},{"name":"QIANFAN-146","line1":"1 69105U 26108B   26163.94827521 -.01767176  00000+0 -10461+1 0  9992","line2":"2 69105  89.0108  22.6703 0021935 125.3005 235.0237 14.11802528  3754","category":"Other"},{"name":"QIANFAN-159","line1":"1 69118U 26108Q   26163.94709349 -.01862284  00000+0 -10966+1 0  9999","line2":"2 69118  89.0103  22.6692 0021403 121.5510 238.7769 14.11655025  3757","category":"Other"},{"name":"QIANFAN-161","line1":"1 69120U 26108S   26164.64359442  .00000084  00000+0  35348-4 0  9999","line2":"2 69120  89.0115  22.5903 0015516 123.7949 236.4719 14.16181117  3857","category":"Other"},{"name":"STARLINK-37726","line1":"1 69124U 26110A   26164.55144155  .00043597  00000+0  79850-3 0  9990","line2":"2 69124  97.2841   0.7360 0001558  95.6026 264.5403 15.49200514  5031","category":"Starlink"},{"name":"QIANFAN-149","line1":"1 69108U 26108E   26164.65420372  .00000071  00000+0  32656-4 0  9992","line2":"2 69108  89.0114  22.6097 0016525 123.7278 236.5484 14.09075523  3847","category":"Other"},{"name":"QIANFAN-145","line1":"1 69104U 26108A   26163.97062110 -.01968653  00000+0 -12915+1 0  9998","line2":"2 69104  89.0102  22.6918 0013934 130.1457 230.0949 14.05987542  3747","category":"Other"},{"name":"QIANFAN-147","line1":"1 69106U 26108C   26163.95197562 -.01793424  00000+0 -11693+1 0  9992","line2":"2 69106  89.0109  22.6889 0013671 123.1850 237.0646 14.06622497  3747","category":"Other"},{"name":"QIANFAN-148","line1":"1 69107U 26108D   26163.94558826 -.01889218  00000+0 -12176+1 0  9990","line2":"2 69107  89.0107  22.6876 0016213 127.1290 233.1377 14.06795030  3741","category":"Other"},{"name":"STARLINK-37722","line1":"1 69125U 26110B   26164.54802835  .00025414  00000+0  46736-3 0  9991","line2":"2 69125  97.2835   0.8936 0001467  86.9489 273.1931 15.49193519  5049","category":"Starlink"},{"name":"QIANFAN-154","line1":"1 69113U 26108K   26163.97500134 -.02146651  00000+0 -13150+1 0  9990","line2":"2 69113  89.0110  22.6748 0018666 100.7153 259.6134 14.10101285  3752","category":"Other"}]}